{
  "type": "FeatureCollection",
  "features": [
    {
      "type": "Feature",
      "properties": {
        "norad_id": 41890,
        "name": "CYGFM07",
        "group": "weather",
        "lat": -16.761349035805583,
        "lon": -78.6843608184926,
        "alt_km": 416.9955936657252,
        "timestamp": "2025-12-04T10:51:49.749561+00:00",
        "meta_object_name": "CYGFM07",
        "meta_object_id": "2016-078G",
        "meta_epoch": "2025-12-03T16:57:09.459072",
        "meta_mean_motion": 15.49434611,
        "meta_eccentricity": 0.0008986,
        "meta_inclination": 34.9472,
        "meta_ra_of_asc_node": 80.6555,
        "meta_arg_of_pericenter": 132.3199,
        "meta_mean_anomaly": 227.8285,
        "meta_ephemeris_type": 0,
        "meta_classification_type": "U",
        "meta_norad_cat_id": 41890,
        "meta_element_set_no": 999,
        "meta_rev_at_epoch": 49855,
        "meta_bstar": 0.00060608,
        "meta_mean_motion_dot": 0.00034498,
        "meta_mean_motion_ddot": 0,
        "tle_line1": "1 41890U 16078G   25337.70635948  .00034498  00000+0  60608-3 0  9996",
        "tle_line2": "2 41890  34.9472  80.6555 0008986 132.3199 227.8285 15.49434611498554"
      },
      "geometry": {
        "type": "Point",
        "coordinates": [
          -78.6843608184926,
          -16.761349035805583
        ]
      }
    },
    {
      "type": "Feature",
      "properties": {
        "norad_id": 41891,
        "name": "CYGFM03",
        "group": "weather",
        "lat": 25.010133551331798,
        "lon": 119.60406574191042,
        "alt_km": 412.5434170089693,
        "timestamp": "2025-12-04T10:51:49.749572+00:00",
        "meta_object_name": "CYGFM03",
        "meta_object_id": "2016-078H",
        "meta_epoch": "2025-12-03T17:38:56.092416",
        "meta_mean_motion": 15.49341165,
        "meta_eccentricity": 0.0008332,
        "meta_inclination": 34.9427,
        "meta_ra_of_asc_node": 82.3773,
        "meta_arg_of_pericenter": 119.5698,
        "meta_mean_anomaly": 240.5855,
        "meta_ephemeris_type": 0,
        "meta_classification_type": "U",
        "meta_norad_cat_id": 41891,
        "meta_element_set_no": 999,
        "meta_rev_at_epoch": 49853,
        "meta_bstar": 0.00061976,
        "meta_mean_motion_dot": 0.00035157,
        "meta_mean_motion_ddot": 0,
        "tle_line1": "1 41891U 16078H   25337.73537144  .00035157  00000+0  61976-3 0  9991",
        "tle_line2": "2 41891  34.9427  82.3773 0008332 119.5698 240.5855 15.49341165498536"
      },
      "geometry": {
        "type": "Point",
        "coordinates": [
          119.60406574191042,
          25.010133551331798
        ]
      }
    },
    {
      "type": "Feature",
      "properties": {
        "norad_id": 43010,
        "name": "FENGYUN 3D",
        "group": "weather",
        "lat": 22.43916746812772,
        "lon": 128.3868643594076,
        "alt_km": 825.800369836029,
        "timestamp": "2025-12-04T10:51:49.749583+00:00",
        "meta_object_name": "FENGYUN 3D",
        "meta_object_id": "2017-072A",
        "meta_epoch": "2025-12-04T05:03:05.383008",
        "meta_mean_motion": 14.19680014,
        "meta_eccentricity": 6.3e-05,
        "meta_inclination": 98.9881,
        "meta_ra_of_asc_node": 304.3935,
        "meta_arg_of_pericenter": 216.0501,
        "meta_mean_anomaly": 144.0632,
        "meta_ephemeris_type": 0,
        "meta_classification_type": "U",
        "meta_norad_cat_id": 43010,
        "meta_element_set_no": 999,
        "meta_rev_at_epoch": 41732,
        "meta_bstar": 0.00012533,
        "meta_mean_motion_dot": 2.19e-06,
        "meta_mean_motion_ddot": 0,
        "tle_line1": "1 43010U 17072A   25338.21047897  .00000219  00000+0  12533-3 0  9992",
        "tle_line2": "2 43010  98.9881 304.3935 0000630 216.0501 144.0632 14.19680014417325"
      },
      "geometry": {
        "type": "Point",
        "coordinates": [
          128.3868643594076,
          22.43916746812772
        ]
      }
    },
    {
      "type": "Feature",
      "properties": {
        "norad_id": 43013,
        "name": "NOAA 20 (JPSS-1)",
        "group": "weather",
        "lat": -45.041324620222376,
        "lon": -76.27813528139657,
        "alt_km": 834.8629894663682,
        "timestamp": "2025-12-04T10:51:49.749595+00:00",
        "meta_object_name": "NOAA 20 (JPSS-1)",
        "meta_object_id": "2017-073A",
        "meta_epoch": "2025-12-04T02:37:13.996128",
        "meta_mean_motion": 14.19522201,
        "meta_eccentricity": 0.0002074,
        "meta_inclination": 98.7586,
        "meta_ra_of_asc_node": 274.5009,
        "meta_arg_of_pericenter": 99.6938,
        "meta_mean_anomaly": 260.4473,
        "meta_ephemeris_type": 0,
        "meta_classification_type": "U",
        "meta_norad_cat_id": 43013,
        "meta_element_set_no": 999,
        "meta_rev_at_epoch": 41679,
        "meta_bstar": 0.00010786,
        "meta_mean_motion_dot": 1.83e-06,
        "meta_mean_motion_ddot": 0,
        "tle_line1": "1 43013U 17073A   25338.10918977  .00000183  00000+0  10786-3 0  9998",
        "tle_line2": "2 43013  98.7586 274.5009 0002074  99.6938 260.4473 14.19522201416790"
      },
      "geometry": {
        "type": "Point",
        "coordinates": [
          -76.27813528139657,
          -45.041324620222376
        ]
      }
    },
    {
      "type": "Feature",
      "properties": {
        "norad_id": 43226,
        "name": "GOES 17",
        "group": "weather",
        "lat": 0.3671025059975985,
        "lon": 146.92926103677135,
        "alt_km": 35794.36326669826,
        "timestamp": "2025-12-04T10:51:49.749606+00:00",
        "meta_object_name": "GOES 17",
        "meta_object_id": "2018-022A",
        "meta_epoch": "2025-12-04T01:18:56.681280",
        "meta_mean_motion": 1.00271254,
        "meta_eccentricity": 0.0003456,
        "meta_inclination": 0.4357,
        "meta_ra_of_asc_node": 89.3075,
        "meta_arg_of_pericenter": 181.7095,
        "meta_mean_anomaly": 92.3543,
        "meta_ephemeris_type": 0,
        "meta_classification_type": "U",
        "meta_norad_cat_id": 43226,
        "meta_element_set_no": 999,
        "meta_rev_at_epoch": 2846,
        "meta_bstar": 0,
        "meta_mean_motion_dot": -1.66e-06,
        "meta_mean_motion_ddot": 0,
        "tle_line1": "1 43226U 18022A   25338.05482270 -.00000166  00000+0  00000+0 0  9991",
        "tle_line2": "2 43226   0.4357  89.3075 0003456 181.7095  92.3543  1.00271254 28467"
      },
      "geometry": {
        "type": "Point",
        "coordinates": [
          146.92926103677135,
          0.3671025059975985
        ]
      }
    },
    {
      "type": "Feature",
      "properties": {
        "norad_id": 43491,
        "name": "FENGYUN 2H",
        "group": "weather",
        "lat": -2.0619795302465436,
        "lon": -44.16807687327999,
        "alt_km": 35782.52606488689,
        "timestamp": "2025-12-04T10:51:49.749622+00:00",
        "meta_object_name": "FENGYUN 2H",
        "meta_object_id": "2018-050A",
        "meta_epoch": "2025-12-04T02:07:07.068000",
        "meta_mean_motion": 1.00271345,
        "meta_eccentricity": 0.0002919,
        "meta_inclination": 2.5269,
        "meta_ra_of_asc_node": 81.4248,
        "meta_arg_of_pericenter": 163.0069,
        "meta_mean_anomaly": 299.8746,
        "meta_ephemeris_type": 0,
        "meta_classification_type": "U",
        "meta_norad_cat_id": 43491,
        "meta_element_set_no": 999,
        "meta_rev_at_epoch": 2748,
        "meta_bstar": 0,
        "meta_mean_motion_dot": -1.15e-06,
        "meta_mean_motion_ddot": 0,
        "tle_line1": "1 43491U 18050A   25338.08827625 -.00000115  00000+0  00000+0 0  9990",
        "tle_line2": "2 43491   2.5269  81.4248 0002919 163.0069 299.8746  1.00271345 27489"
      },
      "geometry": {
        "type": "Point",
        "coordinates": [
          -44.16807687327999,
          -2.0619795302465436
        ]
      }
    },
    {
      "type": "Feature",
      "properties": {
        "norad_id": 43689,
        "name": "METOP-C",
        "group": "weather",
        "lat": 35.91354014398735,
        "lon": 29.98617390806137,
        "alt_km": 816.5967652539057,
        "timestamp": "2025-12-04T10:51:49.749641+00:00",
        "meta_object_name": "METOP-C",
        "meta_object_id": "2018-087A",
        "meta_epoch": "2025-12-04T03:56:09.568032",
        "meta_mean_motion": 14.21506965,
        "meta_eccentricity": 0.0001677,
        "meta_inclination": 98.6942,
        "meta_ra_of_asc_node": 36.0645,
        "meta_arg_of_pericenter": 56.3157,
        "meta_mean_anomaly": 303.818,
        "meta_ephemeris_type": 0,
        "meta_classification_type": "U",
        "meta_norad_cat_id": 43689,
        "meta_element_set_no": 999,
        "meta_rev_at_epoch": 36712,
        "meta_bstar": 0.00015912,
        "meta_mean_motion_dot": 3.05e-06,
        "meta_mean_motion_ddot": 0,
        "tle_line1": "1 43689U 18087A   25338.16399963  .00000305  00000+0  15912-3 0  9999",
        "tle_line2": "2 43689  98.6942  36.0645 0001677  56.3157 303.8180 14.21506965367123"
      },
      "geometry": {
        "type": "Point",
        "coordinates": [
          29.98617390806137,
          35.91354014398735
        ]
      }
    }
  ]
}